{
    "links": {
        "self": "http://www.neowsapp.com/rest/v1/neo/3582869?api_key=iIulBulltgU6a56xZRHN4H3l9WmuAYTsLGpBGhQ2"
    },
    "id": "3582869",
    "neo_reference_id": "3582869",
    "name": "(2011 UA115)",
    "designation": "2011 UA115",
    "nasa_jpl_url": "http://ssd.jpl.nasa.gov/sbdb.cgi?sstr=3582869",
    "absolute_magnitude_h": 24.7,
    "estimated_diameter": {
        "kilometers": {
            "estimated_diameter_min": 0.0305179233,
            "estimated_diameter_max": 0.0682401509
        },
        "meters": {
            "estimated_diameter_min": 30.5179232594,
            "estimated_diameter_max": 68.2401509401
        },
        "miles": {
            "estimated_diameter_min": 0.0189629525,
            "estimated_diameter_max": 0.0424024508
        },
        "feet": {
            "estimated_diameter_min": 100.1244233463,
            "estimated_diameter_max": 223.8850168104
        }
    },
    "is_potentially_hazardous_asteroid": false,
    "close_approach_data": [
        {
            "close_approach_date": "2011-11-19",
            "close_approach_date_full": "2011-Nov-19 03:51",
            "epoch_date_close_approach": 1321674660000,
            "relative_velocity": {
                "kilometers_per_second": "9.6966111801",
                "kilometers_per_hour": "34907.800248388",
                "miles_per_hour": "21690.3495487831"
            },
            "miss_distance": {
                "astronomical": "0.0364066584",
                "lunar": "14.1621901176",
                "kilometers": "5446358.550457608",
                "miles": "3384210.2753386704"
            },
            "orbiting_body": "Earth"
        }
    ],
    "orbital_data": {
        "orbit_id": "11",
        "orbit_determination_date": "2017-04-06 08:52:15",
        "first_observation_date": "2011-10-24",
        "last_observation_date": "2011-11-26",
        "data_arc_in_days": 33,
        "observations_used": 40,
        "orbit_uncertainty": "7",
        "minimum_orbit_intersection": ".00862069",
        "jupiter_tisserand_invariant": "3.123",
        "epoch_osculation": "2459000.5",
        "eccentricity": ".6234525005551949",
        "semi_major_axis": "2.571411958983076",
        "inclination": ".6292877625653189",
        "ascending_node_longitude": "192.9488150115169",
        "orbital_period": "1506.107308307124",
        "perihelion_distance": ".9682587431975452",
        "perihelion_argument": "250.8662660414955",
        "aphelion_distance": "4.174565174768608",
        "perihelion_time": "2458922.151298999750",
        "mean_anomaly": "18.72743874524675",
        "mean_motion": ".2390267931204999",
        "equinox": "J2000",
        "orbit_class": {
            "orbit_class_type": "APO",
            "orbit_class_description": "Near-Earth asteroid orbits which cross the Earth’s orbit similar to that of 1862 Apollo",
            "orbit_class_range": "a (semi-major axis) > 1.0 AU; q (perihelion) < 1.017 AU"
        }
    },
    "is_sentry_object": false
}